[{"OBJECT_NAME":"STARLINK-1547","OBJECT_ID":"2020-062Y","EPOCH":"2026-03-10T00:00:02.999808","MEAN_MOTION":15.64219484,"ECCENTRICITY":0.00047669,"INCLINATION":53.037,"RA_OF_ASC_NODE":277.3047,"ARG_OF_PERICENTER":159.1471,"MEAN_ANOMALY":36.803,"EPHEMERIS_TYPE":0,"CLASSIFICATION_TYPE":"U","NORAD_CAT_ID":46347,"ELEMENT_SET_NO":999,"REV_AT_EPOCH":594,"BSTAR":0.0023378956,"MEAN_MOTION_DOT":0.00232884,"MEAN_MOTION_DDOT":0},{"OBJECT_NAME":"PSLV DEB","OBJECT_ID":"2001-049BW","EPOCH":"2026-03-09T21:17:53.344608","MEAN_MOTION":15.63832708,"ECCENTRICITY":0.00063664,"INCLINATION":98.1378,"RA_OF_ASC_NODE":175.6257,"ARG_OF_PERICENTER":100.8208,"MEAN_ANOMALY":259.3766,"EPHEMERIS_TYPE":0,"CLASSIFICATION_TYPE":"U","NORAD_CAT_ID":27126,"ELEMENT_SET_NO":999,"REV_AT_EPOCH":31360,"BSTAR":0.002160394,"MEAN_MOTION_DOT":0.00207187,"MEAN_MOTION_DDOT":0}]
